[
  {
    "OBJECT_NAME": "TIANZHI 1",
    "OBJECT_ID": "2018-094A",
    "EPOCH": "2023-03-08T01:42:54.723744",
    "MEAN_MOTION": 15.28789115,
    "ECCENTRICITY": 0.0013715,
    "INCLINATION": 97.3958,
    "RA_OF_ASC_NODE": 79.1837,
    "ARG_OF_PERICENTER": 137.9131,
    "MEAN_ANOMALY": 306.1372,
    "EPHEMERIS_TYPE": 0,
    "CLASSIFICATION_TYPE": "U",
    "NORAD_CAT_ID": 43710,
    "ELEMENT_SET_NO": 999,
    "REV_AT_EPOCH": 23903,
    "BSTAR": 0.0005428,
    "MEAN_MOTION_DOT": 0.00015169,
    "MEAN_MOTION_DDOT": 0
  },
  {
    "OBJECT_NAME": "SHIYAN 6 01 (SY-6 01)",
    "OBJECT_ID": "2018-094B",
    "EPOCH": "2023-03-07T22:40:45.605856",
    "MEAN_MOTION": 15.28449678,
    "ECCENTRICITY": 0.0059897,
    "INCLINATION": 97.4139,
    "RA_OF_ASC_NODE": 77.1706,
    "ARG_OF_PERICENTER": 265.7503,
    "MEAN_ANOMALY": 93.6891,
    "EPHEMERIS_TYPE": 0,
    "CLASSIFICATION_TYPE": "U",
    "NORAD_CAT_ID": 43711,
    "ELEMENT_SET_NO": 999,
    "REV_AT_EPOCH": 23878,
    "BSTAR": 0.00048282,
    "MEAN_MOTION_DOT": 0.00014039,
    "MEAN_MOTION_DDOT": 0
  },
  {
    "OBJECT_NAME": "TIANPING 1A",
    "OBJECT_ID": "2018-094C",
    "EPOCH": "2023-03-08T02:18:17.100000",
    "MEAN_MOTION": 15.3313016,
    "ECCENTRICITY": 0.0012503,
    "INCLINATION": 97.3905,
    "RA_OF_ASC_NODE": 81.2217,
    "ARG_OF_PERICENTER": 126.8926,
    "MEAN_ANOMALY": 318.9745,
    "EPHEMERIS_TYPE": 0,
    "CLASSIFICATION_TYPE": "U",
    "NORAD_CAT_ID": 43712,
    "ELEMENT_SET_NO": 999,
    "REV_AT_EPOCH": 23918,
    "BSTAR": 0.00079151,
    "MEAN_MOTION_DOT": 0.00025371,
    "MEAN_MOTION_DDOT": 0
  },
  {
    "OBJECT_NAME": "JIADING 1",
    "OBJECT_ID": "2018-094D",
    "EPOCH": "2023-03-08T02:04:47.549280",
    "MEAN_MOTION": 15.32032248,
    "ECCENTRICITY": 0.0013555,
    "INCLINATION": 97.3911,
    "RA_OF_ASC_NODE": 80.842,
    "ARG_OF_PERICENTER": 133.0899,
    "MEAN_ANOMALY": 312.2207,
    "EPHEMERIS_TYPE": 0,
    "CLASSIFICATION_TYPE": "U",
    "NORAD_CAT_ID": 43713,
    "ELEMENT_SET_NO": 999,
    "REV_AT_EPOCH": 23915,
    "BSTAR": 0.0007096,
    "MEAN_MOTION_DOT": 0.00021967,
    "MEAN_MOTION_DDOT": 0
  },
  {
    "OBJECT_NAME": "TIANPING 1B",
    "OBJECT_ID": "2018-094E",
    "EPOCH": "2023-03-08T02:32:42.205920",
    "MEAN_MOTION": 15.29374967,
    "ECCENTRICITY": 0.0012698,
    "INCLINATION": 97.395,
    "RA_OF_ASC_NODE": 79.7441,
    "ARG_OF_PERICENTER": 134.5858,
    "MEAN_ANOMALY": 310.6931,
    "EPHEMERIS_TYPE": 0,
    "CLASSIFICATION_TYPE": "U",
    "NORAD_CAT_ID": 43714,
    "ELEMENT_SET_NO": 999,
    "REV_AT_EPOCH": 23907,
    "BSTAR": 0.00051634,
    "MEAN_MOTION_DOT": 0.00014681,
    "MEAN_MOTION_DDOT": 0
  },
  {
    "OBJECT_NAME": "MOHAMMED VI-B",
    "OBJECT_ID": "2018-095A",
    "EPOCH": "2023-03-08T02:36:53.095968",
    "MEAN_MOTION": 14.77069354,
    "ECCENTRICITY": 9.51e-5,
    "INCLINATION": 97.9402,
    "RA_OF_ASC_NODE": 140.5923,
    "ARG_OF_PERICENTER": 105.2986,
    "MEAN_ANOMALY": 254.8371,
    "EPHEMERIS_TYPE": 0,
    "CLASSIFICATION_TYPE": "U",
    "NORAD_CAT_ID": 43717,
    "ELEMENT_SET_NO": 999,
    "REV_AT_EPOCH": 23131,
    "BSTAR": 4.9976e-5,
    "MEAN_MOTION_DOT": 3.02e-6,
    "MEAN_MOTION_DDOT": 0
  },
  {
    "OBJECT_NAME": "HYSIS",
    "OBJECT_ID": "2018-096A",
    "EPOCH": "2023-03-08T03:26:22.392672",
    "MEAN_MOTION": 14.78689895,
    "ECCENTRICITY": 0.0002515,
    "INCLINATION": 97.9245,
    "RA_OF_ASC_NODE": 134.8012,
    "ARG_OF_PERICENTER": 69.3708,
    "MEAN_ANOMALY": 290.7816,
    "EPHEMERIS_TYPE": 0,
    "CLASSIFICATION_TYPE": "U",
    "NORAD_CAT_ID": 43719,
    "ELEMENT_SET_NO": 999,
    "REV_AT_EPOCH": 23052,
    "BSTAR": 0.00040484,
    "MEAN_MOTION_DOT": 2.918e-5,
    "MEAN_MOTION_DDOT": 0
  },
  {
    "OBJECT_NAME": "FACSAT-1",
    "OBJECT_ID": "2018-096C",
    "EPOCH": "2023-03-08T05:47:04.877088",
    "MEAN_MOTION": 15.58391494,
    "ECCENTRICITY": 0.0010287,
    "INCLINATION": 97.3201,
    "RA_OF_ASC_NODE": 154.2338,
    "ARG_OF_PERICENTER": 183.4137,
    "MEAN_ANOMALY": 236.6214,
    "EPHEMERIS_TYPE": 0,
    "CLASSIFICATION_TYPE": "U",
    "NORAD_CAT_ID": 43721,
    "ELEMENT_SET_NO": 999,
    "REV_AT_EPOCH": 23866,
    "BSTAR": 0.0018747,
    "MEAN_MOTION_DOT": 0.00145032,
    "MEAN_MOTION_DDOT": 0
  },
  {
    "OBJECT_NAME": "CENTAURI-2",
    "OBJECT_ID": "2018-096D",
    "EPOCH": "2023-03-07T04:44:56.731776",
    "MEAN_MOTION": 15.89745752,
    "ECCENTRICITY": 0.0008177,
    "INCLINATION": 97.3196,
    "RA_OF_ASC_NODE": 158.5283,
    "ARG_OF_PERICENTER": 240.9366,
    "MEAN_ANOMALY": 119.1088,
    "EPHEMERIS_TYPE": 0,
    "CLASSIFICATION_TYPE": "U",
    "NORAD_CAT_ID": 43722,
    "ELEMENT_SET_NO": 999,
    "REV_AT_EPOCH": 23881,
    "BSTAR": 0.0030823,
    "MEAN_MOTION_DOT": 0.00902888,
    "MEAN_MOTION_DDOT": 0.00033754
  },
  {
    "OBJECT_NAME": "GLOBAL-1",
    "OBJECT_ID": "2018-096M",
    "EPOCH": "2023-03-07T23:30:05.340672",
    "MEAN_MOTION": 15.4093487,
    "ECCENTRICITY": 0.0013628,
    "INCLINATION": 97.339,
    "RA_OF_ASC_NODE": 151.1254,
    "ARG_OF_PERICENTER": 193.9325,
    "MEAN_ANOMALY": 166.1548,
    "EPHEMERIS_TYPE": 0,
    "CLASSIFICATION_TYPE": "U",
    "NORAD_CAT_ID": 43730,
    "ELEMENT_SET_NO": 999,
    "REV_AT_EPOCH": 23837,
    "BSTAR": 0.0010452,
    "MEAN_MOTION_DOT": 0.00043242,
    "MEAN_MOTION_DDOT": 0
  },
  {
    "OBJECT_NAME": "CICERO 8",
    "OBJECT_ID": "2018-096U",
    "EPOCH": "2023-03-08T04:05:46.929120",
    "MEAN_MOTION": 15.61665568,
    "ECCENTRICITY": 0.0013249,
    "INCLINATION": 97.3318,
    "RA_OF_ASC_NODE": 160.2809,
    "ARG_OF_PERICENTER": 173.3266,
    "MEAN_ANOMALY": 186.8171,
    "EPHEMERIS_TYPE": 0,
    "CLASSIFICATION_TYPE": "U",
    "NORAD_CAT_ID": 43737,
    "ELEMENT_SET_NO": 999,
    "REV_AT_EPOCH": 23902,
    "BSTAR": 0.0019491,
    "MEAN_MOTION_DOT": 0.00171582,
    "MEAN_MOTION_DDOT": 0
  },
  {
    "OBJECT_NAME": "REAKTOR HELLO WORLD",
    "OBJECT_ID": "2018-096AA",
    "EPOCH": "2023-03-07T11:23:32.186976",
    "MEAN_MOTION": 15.46067448,
    "ECCENTRICITY": 0.0012208,
    "INCLINATION": 97.3264,
    "RA_OF_ASC_NODE": 151.5321,
    "ARG_OF_PERICENTER": 190.4454,
    "MEAN_ANOMALY": 169.6544,
    "EPHEMERIS_TYPE": 0,
    "CLASSIFICATION_TYPE": "U",
    "NORAD_CAT_ID": 43743,
    "ELEMENT_SET_NO": 999,
    "REV_AT_EPOCH": 23839,
    "BSTAR": 0.0015367,
    "MEAN_MOTION_DOT": 0.00075869,
    "MEAN_MOTION_DDOT": 0
  },
  {
    "OBJECT_NAME": "COSMOS 2530",
    "OBJECT_ID": "2018-097A",
    "EPOCH": "2023-03-08T03:20:53.073888",
    "MEAN_MOTION": 12.42895498,
    "ECCENTRICITY": 0.0019941,
    "INCLINATION": 82.5102,
    "RA_OF_ASC_NODE": 245.2685,
    "ARG_OF_PERICENTER": 127.6984,
    "MEAN_ANOMALY": 232.5909,
    "EPHEMERIS_TYPE": 0,
    "CLASSIFICATION_TYPE": "U",
    "NORAD_CAT_ID": 43751,
    "ELEMENT_SET_NO": 999,
    "REV_AT_EPOCH": 19367,
    "BSTAR": 0.00025402,
    "MEAN_MOTION_DOT": 4.5e-7,
    "MEAN_MOTION_DDOT": 0
  },
  {
    "OBJECT_NAME": "COSMOS 2531",
    "OBJECT_ID": "2018-097B",
    "EPOCH": "2023-03-08T02:01:21.854208",
    "MEAN_MOTION": 12.42902439,
    "ECCENTRICITY": 0.0017057,
    "INCLINATION": 82.514,
    "RA_OF_ASC_NODE": 245.9157,
    "ARG_OF_PERICENTER": 144.5293,
    "MEAN_ANOMALY": 215.6925,
    "EPHEMERIS_TYPE": 0,
    "CLASSIFICATION_TYPE": "U",
    "NORAD_CAT_ID": 43752,
    "ELEMENT_SET_NO": 999,
    "REV_AT_EPOCH": 19367,
    "BSTAR": 0.0001,
    "MEAN_MOTION_DOT": 2.4e-7,
    "MEAN_MOTION_DDOT": 0
  }
]
