TIANZHI 1               
1 43710U 18094A   23067.07146671  .00015169  00000+0  54280-3 0  9990
2 43710  97.3958  79.1837 0013715 137.9131 306.1372 15.28789115239031
SHIYAN 6 01 (SY-6 01)   
1 43711U 18094B   23066.94497229  .00014039  00000+0  48282-3 0  9994
2 43711  97.4139  77.1706 0059897 265.7503  93.6891 15.28449678238783
TIANPING 1A             
1 43712U 18094C   23067.09603125  .00025371  00000+0  79151-3 0  9996
2 43712  97.3905  81.2217 0012503 126.8926 318.9745 15.33130160239181
JIADING 1               
1 43713U 18094D   23067.08666145  .00021967  00000+0  70960-3 0  9993
2 43713  97.3911  80.8420 0013555 133.0899 312.2207 15.32032248239151
TIANPING 1B             
1 43714U 18094E   23067.10604405  .00014681  00000+0  51634-3 0  9990
2 43714  97.3950  79.7441 0012698 134.5858 310.6931 15.29374967239073
MOHAMMED VI-B           
1 43717U 18095A   23067.10894787  .00000302  00000+0  49976-4 0  9990
2 43717  97.9402 140.5923 0000951 105.2986 254.8371 14.77069354231311
HYSIS                   
1 43719U 18096A   23067.14331473  .00002918  00000+0  40484-3 0  9994
2 43719  97.9245 134.8012 0002515  69.3708 290.7816 14.78689895230527
FACSAT-1                
1 43721U 18096C   23067.24102867  .00145032  00000+0  18747-2 0  9992
2 43721  97.3201 154.2338 0010287 183.4137 236.6214 15.58391494238660
CENTAURI-2              
1 43722U 18096D   23066.19787884  .00902888  33754-3  30823-2 0  9999
2 43722  97.3196 158.5283 0008177 240.9366 119.1088 15.89745752238813
GLOBAL-1                
1 43730U 18096M   23066.97922848  .00043242  00000+0  10452-2 0  9995
2 43730  97.3390 151.1254 0013628 193.9325 166.1548 15.40934870238376
CICERO 8                
1 43737U 18096U   23067.17068205  .00171582  00000+0  19491-2 0  9994
2 43737  97.3318 160.2809 0013249 173.3266 186.8171 15.61665568239027
REAKTOR HELLO WORLD     
1 43743U 18096AA  23066.47467809  .00075869  00000+0  15367-2 0  9995
2 43743  97.3264 151.5321 0012208 190.4454 169.6544 15.46067448238397
COSMOS 2530             
1 43751U 18097A   23067.13950317  .00000045  00000+0  25402-3 0  9996
2 43751  82.5102 245.2685 0019941 127.6984 232.5909 12.42895498193671
COSMOS 2531             
1 43752U 18097B   23067.08428072  .00000024  00000+0  10000-3 0  9994
2 43752  82.5140 245.9157 0017057 144.5293 215.6925 12.42902439193676
